P   3.51           H   19.5     G   0.15   q 2.06993214  Q 2.54905510
From 3 observations 2016 Feb. 9 (38.8 min); mean residual 0".126.
# State vector (heliocentric ecliptic J2000):
#   -1.776772718470   1.059082879849   0.077742660408 AU
#   -6.444419150207 -10.722175460104  -1.136047318341 mAU/day
# MOIDs: Me  1.7106 Ve  1.3515 Ea  1.0822 Ma  0.4046
# MOIDs: Ju  2.4438 Sa  6.8361 Ur 16.1991 Ne 27.3782
# Elements written: 17 Oct 2016 23:03:32 (JD 2457679.460787)
# Full range of obs: 2016 Feb. 9 (38.8 min) (3 observations)
# Find_Orb ver: Sep  6 2012 00:42:31
# Perturbers: 00000000 (unperturbed orbit)
# Tisserand relative to Earth: 3.44147
# Tisserand relative to Jupiter: 3.57189
# Tisserand relative to Neptune: 13.56838
# %20$Name=EPM0188  $Ty=2016  $Tm=02  $Td=09.576748  $MA=0.11886
#  $ecc=0.1037290  $Eqnx=2000.
#  $a=2.3094936  $Peri=157.30273  $Node=351.65454  $Incl=5.62040
#  $EpJD=2457428.500  $q=2.069932  $T=2457428.076748  $H=19.5
Orbital elements: 
EPM0189
   Perihelion 2016 Feb 9.556469 TT = 13:21:18 (JD 2457428.056469)
Epoch 2016 Feb 10.0 TT = JDT 2457428.5   Earth MOID: 0.7561   Ma: 0.0784
M   0.12639              (2000.0)            P               Q
n   0.28497613     Peri.   32.87476     -0.84267904     -0.53577881     
a   2.28698713     Node   114.63955      0.48048193     -0.79293151     
e   0.2378581      Incl.    3.35708      0.24295913     -0.29017353     
P   3.46           H   20.9     G   0.15   q 1.74300854  Q 2.83096573
From 3 observations 2016 Feb. 9 (38.6 min); mean residual 0".515.
# State vector (heliocentric ecliptic J2000):
#   -1.472233593206   0.931402368525   0.055719030471 AU
#   -7.730541902616 -12.242723612764   0.711582217205 mAU/day
# MOIDs: Me  1.3915 Ve  1.0247 Ea  0.7561 Ma  0.0784
# MOIDs: Ju  2.1825 Sa  6.8244 Ur 16.4978 Ne 27.1473
# Elements written: 17 Oct 2016 23:03:32 (JD 2457679.460787)
# Full range of obs: 2016 Feb. 9 (38.6 min) (3 observations)
# Find_Orb ver: Sep  6 2012 00:42:31
# Perturbers: 00000000 (unperturbed orbit)
# Tisserand relative to Earth: 3.36997
# Tisserand relative to Jupiter: 3.56085
# Tisserand relative to Neptune: 13.68269
# %20$Name=EPM0189  $Ty=2016  $Tm=02  $Td=09.556468  $MA=0.12640
#  $ecc=0.2378582  $Eqnx=2000.
#  $a=2.2869871  $Peri=32.87476  $Node=114.63956  $Incl=3.35709
#  $EpJD=2457428.500  $q=1.743009  $T=2457428.056469  $H=20.8
Orbital elements: 
EPM0190
   Perihelion 2016 Feb 9.578063 TT = 13:52:24 (JD 2457428.078063)
Epoch 2016 Feb 10.0 TT = JDT 2457428.5   Earth MOID: 0.7563   Ma: 0.0787
M   0.12721              (2000.0)            P               Q
n   0.30150064     Peri.   28.71514     -0.84221460     -0.53561215     
a   2.20264183     Node   118.77038      0.48025275     -0.79722942     
e   0.2086737      Incl.    4.02958      0.24501399     -0.27846877     
P   3.27           H   20.2     G   0.15   q 1.74300829  Q 2.66227537
From 4 observations 2016 Feb. 9 (58.1 min); mean residual 0".079.
# State vector (heliocentric ecliptic J2000):
#   -1.471217042334   0.932790226885   0.059220296456 AU
#   -7.637845518657 -12.086511136565   0.881434328883 mAU/day
# MOIDs: Me  1.3905 Ve  1.0247 Ea  0.7563 Ma  0.0787
# MOIDs: Ju  2.3489 Sa  6.9428 Ur 16.5065 Ne 27.3090
# Elements written: 17 Oct 2016 23:03:32 (JD 2457679.460787)
# Full range of obs: 2016 Feb. 9 (58.1 min) (4 observations)
# Find_Orb ver: Sep  6 2012 00:42:31
# Perturbers: 00000000 (unperturbed orbit)
# Tisserand relative to Earth: 3.34974
# Tisserand relative to Jupiter: 3.63176
# Tisserand relative to Neptune: 14.17941
# %20$Name=EPM0190  $Ty=2016  $Tm=02  $Td=09.578062  $MA=0.12721
#  $ecc=0.2086738  $Eqnx=2000.
#  $a=2.2026418  $Peri=28.71515  $Node=118.77038  $Incl=4.02959
#  $EpJD=2457428.500  $q=1.743008  $T=2457428.078063  $H=20.1
Orbital elements: 
EPM0192
   Perihelion 2016 Feb 9.532951 TT = 12:47:27 (JD 2457428.032951)
Epoch 2016 Feb 10.0 TT = JDT 2457428.5                  Find_Orb
M   0.12599              (2000.0)            P               Q
n   0.26977525     Peri.  156.97848     -0.86242498     -0.50597048     
a   2.37210898     Node   352.57420      0.44488001     -0.74377147     
e   0.0371781      Incl.    6.54493      0.24146411     -0.43680414     
P   3.65           H   18.6     G   0.15   q 2.28391843  Q 2.46029953
From 4 observations 2016 Feb. 9 (58.1 min); mean residual 0".062.
# State vector (heliocentric ecliptic J2000):
#   -1.972442380741   1.146955134689   0.101239440005 AU
#   -5.842471639791  -9.938012359766  -1.217259094747 mAU/day
# MOIDs: Me  1.8983 Ve  1.5653 Ea  1.2951 Ma  0.6183
# MOIDs: Ju  2.5151 Sa  6.7215 Ur 15.9970 Ne 27.4159
# Elements written: 17 Oct 2016 23:03:32 (JD 2457679.460787)
# Full range of obs: 2016 Feb. 9 (58.1 min) (4 observations)
# Find_Orb ver: Sep  6 2012 00:42:31
# Perturbers: 00000000 (unperturbed orbit)
# Tisserand relative to Earth: 3.47971
# Tisserand relative to Jupiter: 3.53419
# Tisserand relative to Neptune: 13.23376
# %20$Name=EPM0192  $Ty=2016  $Tm=02  $Td=09.532951  $MA=0.12600
#  $ecc=0.0371781  $Eqnx=2000.
#  $a=2.3721090  $Peri=156.97849  $Node=352.57421  $Incl=6.54494
#  $EpJD=2457428.500  $q=2.283918  $T=2457428.032951  $H=18.6
Orbital elements: 
EPM0193
   Perihelion 2016 Feb 9.556467 TT = 13:21:18 (JD 2457428.056467)
Epoch 2016 Feb 10.0 TT = JDT 2457428.5   Earth MOID: 0.9048
M   0.11884              (2000.0)            P               Q
n   0.26794953     Peri.   53.95638     -0.84910660     -0.52617577     
a   2.38287199     Node    94.25327      0.46842168     -0.79069968     
e   0.2061637      Incl.    2.66935      0.24412926     -0.31294258     
P   3.68           H   19.7     G   0.15   q 1.89161006  Q 2.87413392
From 3 observations 2016 Feb. 9 (38.6 min); mean residual 0".073.
# State vector (heliocentric ecliptic J2000):
#   -1.609377412953   0.991464354929   0.071398589645 AU
#   -7.196515761336 -11.694199894960   0.375033047988 mAU/day
# MOIDs: Me  1.5388 Ve  1.1732 Ea  0.9048 Ma  0.2270
# MOIDs: Ju  2.1360 Sa  6.7398 Ur 16.3542 Ne 27.0960
# Elements written: 17 Oct 2016 23:03:32 (JD 2457679.460787)
# Full range of obs: 2016 Feb. 9 (38.6 min) (3 observations)
# Find_Orb ver: Sep  6 2012 00:42:31
# Perturbers: 00000000 (unperturbed orbit)
# Tisserand relative to Earth: 3.43737
# Tisserand relative to Jupiter: 3.50656
# Tisserand relative to Neptune: 13.16913
# %20$Name=EPM0193  $Ty=2016  $Tm=02  $Td=09.556466  $MA=0.11884
#  $ecc=0.2061638  $Eqnx=2000.
#  $a=2.3828720  $Peri=53.95639  $Node=94.25327  $Incl=2.66935
#  $EpJD=2457428.500  $q=1.891610  $T=2457428.056467  $H=19.6
Orbital elements: 
EPM0194
   Perihelion 2014 Apr 28.544918 TT = 13:04:40 (JD 2456776.044918)
Epoch 2016 Feb 10.0 TT = JDT 2457428.5                  Find_Orb
M 179.88216              (2000.0)            P               Q
n   0.27570046     Peri.  292.92177      0.87046130      0.49118515     
a   2.33799933     Node    37.68140     -0.43014963      0.79080556     
e   0.0866998      Incl.    3.01581     -0.23930817      0.36518996     
P   3.57           H   18.3     G   0.15   q 2.13529514  Q 2.54070352
From 4 observations 2016 Feb. 9 (58.1 min); mean residual 0".273.
# State vector (heliocentric ecliptic J2000):
#   -2.209415368379   1.248389629001   0.123205654520 AU
#   -5.082943631985  -8.971636106763  -0.210385175171 mAU/day
# MOIDs: Me  1.7229 Ve  1.4074 Ea  1.1261 Ma  0.7530
# MOIDs: Ju  2.7017 Sa  6.5634 Ur 15.7591 Ne 27.4668
# Elements written: 17 Oct 2016 23:03:33 (JD 2457679.460799)
# Full range of obs: 2016 Feb. 9 (58.1 min) (4 observations)
# Find_Orb ver: Sep  6 2012 00:42:31
# Perturbers: 00000000 (unperturbed orbit)
# Tisserand relative to Earth: 3.47008
# Tisserand relative to Jupiter: 3.55928
# Tisserand relative to Neptune: 13.41582
# %20$Name=EPM0194  $Ty=2014  $Tm=04  $Td=28.544918  $MA=179.88217
#  $ecc=0.0866998  $Eqnx=2000.
#  $a=2.3379993  $Peri=292.92177  $Node=37.68141  $Incl=3.01582
#  $EpJD=2457428.500  $q=2.135295  $T=2456776.044918  $H=18.3
Orbital elements: 
ESL0004
   Perihelion 2016 Feb 1.392638 TT =  9:25:23 (JD 2457419.892638)
Epoch 2016 Feb  1.0 TT = JDT 2457419.5                  Find_Orb
M 359.92086              (2000.0)            P               Q
n   0.20155319     Peri.  160.40724     -0.78820261     -0.61515326     
a   2.88099782     Node   341.59462      0.55676752     -0.70033989     
e   0.1181172      Incl.    3.26360      0.26219565     -0.36209182     
P   4.89           H   17.9     G   0.15   q 2.54070227  Q 3.22129338
From 3 observations 2016 Feb. 1 (32.9 min); mean residual 0".140.
# State vector (heliocentric ecliptic J2000):
#   -1.999829106957   1.566358129067   0.048743275510 AU
#   -7.034087364498  -8.965100321846  -0.611702485738 mAU/day
# MOIDs: Me  2.1948 Ve  1.8228 Ea  1.5538 Ma  0.8786
# MOIDs: Ju  1.7939 Sa  6.3071 Ur 15.6984 Ne 26.7483
# Elements written: 17 Oct 2016 23:03:33 (JD 2457679.460799)
# Full range of obs: 2016 Feb. 1 (32.9 min) (3 observations)
# Find_Orb ver: Sep  6 2012 00:42:31
# Perturbers: 00000000 (unperturbed orbit)
# Tisserand relative to Earth: 3.71257
# Tisserand relative to Jupiter: 3.28146
# Tisserand relative to Neptune: 11.05075
# %20$Name=ESL0004  $Ty=2016  $Tm=02  $Td=01.392637  $MA=359.92086
#  $ecc=0.1181173  $Eqnx=2000.
#  $a=2.8809978  $Peri=160.40725  $Node=341.59463  $Incl=3.26360
#  $EpJD=2457419.500  $q=2.540702  $T=2457419.892638  $H=17.9
Orbital elements: 
FSG1603
   Perihelion 2016 Feb 9.534479 TT = 12:49:39 (JD 2457428.034479)
Epoch 2016 Feb 10.0 TT = JDT 2457428.5   Earth MOID: 0.9052
M   0.11757              (2000.0)            P               Q
n   0.25257585     Peri.   95.88262     -0.84562496     -0.53275980     
a   2.47860979     Node    51.93004      0.47168109     -0.77471826     
e   0.2368261      Incl.    2.39842      0.24987067     -0.34055629     
P   3.90           H   20.0     G   0.15   q 1.89161006  Q 3.06560952
From 3 observations 2016 Feb. 9 (58.1 min); mean residual 0".078.
# State vector (heliocentric ecliptic J2000):
